satname,norad_id,inclination_deg,eccentricity,mean_motion_rev_per_day,perigee_km,apogee_km,l1,l2
STARLINK-1008,44714,53.1534,0.0002268,15.46781351,424.6057366382174,427.6921607445447,1 44714U 19074B   26137.64742795  .00009594  00000+0  19670-3 0  9996,2 44714  53.1534 214.5235 0002268  27.3753 332.7374 15.46781351359489
STARLINK-1012,44718,53.1577,0.0002026,15.46993331,424.14893107844455,426.90577587447297,1 44718U 19074F   26137.84244329  .00010646  00000+0  21575-3 0  9999,2 44718  53.1577 213.9060 0002026  21.1000 339.0091 15.46993331359500
STARLINK-1017,44723,53.0467,0.0004603,15.29788107,473.29001942906507,479.6003477872955,1 44723U 19074L   26137.45622029  .00017833  00000+0  62041-3 0  9997,2 44723  53.0467 212.7125 0004603 324.9360  35.1335 15.29788107359473
STARLINK-1020,44725,53.1595,0.000266,15.51462481,410.64899698410954,414.26159208480294,1 44725U 19074N   26137.67487169  .00038647  00000+0  64821-3 0  9991,2 44725  53.1595 239.5194 0002660   4.4589 355.6444 15.51462481359116
STARLINK-1036,44741,53.0422,0.0002374,15.66971206,365.9741114376993,369.17697575339844,1 44741U 19074AE  26137.62898517  .00032089  00000+0  30036-3 0  9992,2 44741  53.0422 211.4566 0002374 292.0055  68.0708 15.66971206359506
STARLINK-1039,44744,53.0607,0.0002064,15.27128821,482.9839931591423,485.8168486064824,1 44744U 19074AH  26137.70951981  .00019817  00000+0  74601-3 0  9999,2 44744  53.0607 256.4921 0002064 347.2408  12.8538 15.27128821358881
STARLINK-1042,44747,53.0405,0.0003343,15.53056531,405.539403011403,410.0764858012326,1 44747U 19074AL  26137.25274403  .00016914  00000+0  27281-3 0  9996,2 44747  53.0405 124.9461 0003343  41.3858 318.7404 15.53056531360712
STARLINK-1043,44748,53.0491,0.00024,15.58399399,390.6640608157559,393.9138652780184,1 44748U 19074AM  26137.63950568  .00021527  00000+0  28364-3 0  9991,2 44748  53.0491 220.6384 0002400 328.1497  31.9369 15.58399399359386
STARLINK-1046,44751,53.0494,0.0005838,15.52437413,405.64931057342073,413.57468630399853,1 44751U 19074AQ  26137.69487243  .00042755  00000+0  69101-3 0  9996,2 44751  53.0494 240.7623 0005838   0.5278 359.5736 15.52437413359109
STARLINK-1047,44752,53.068,0.0003592,15.33991557,461.45982226164506,466.37515420599084,1 44752U 19074AR  26137.84730745  .00005291  00000+0  16977-3 0  9999,2 44752  53.0680 182.5476 0003592  75.1780 284.9619 15.33991557359954
STARLINK-1048,44753,53.0442,0.0006323,15.65119539,368.6263113661598,377.1636664193138,1 44753U 19074AS  26137.53355737  .00027609  00000+0  27899-3 0  9992,2 44753  53.0442 193.6435 0006323 349.2597  10.8281 15.65119539359740
STARLINK-1063,44768,53.1575,7.01e-05,15.46734327,425.8098676844411,426.7638479093039,1 44768U 19074BH  26137.78898116  .00020992  00000+0  42032-3 0  9992,2 44768  53.1575 254.8615 0000701  35.2096 324.8958 15.46734327358941
STARLINK-1067,44771,53.043,0.0005952,15.7153964,350.4888382028885,358.5033646468246,1 44771U 19074BL  26137.62197007  .00041606  00000+0  32085-3 0  9992,2 44771  53.0430 226.1204 0005952 309.9831  50.0663 15.71539640359302
STARLINK-1068,44772,53.0432,0.0002134,15.72356696,350.727299403251,353.5997916760871,1 44772U 19074BM  26137.76377736  .00041985  00000+0  31301-3 0  9997,2 44772  53.0432 199.1837 0002134  57.3437 302.7786 15.72356696359684
STARLINK-1114,44927,53.0428,0.000102,15.6205325,381.03738336340575,382.41639559685973,1 44927U 20001P   26137.70992522  .00050842  00000+0  57298-3 0  9996,2 44927  53.0428 354.9567 0001020  55.7281 304.3828 15.62053250350847
STARLINK-1123,44930,53.1464,0.0002458,15.54698515,401.36234003569734,404.69596131536946,1 44930U 20001S   26137.83944148  .00049998  00000+0  74312-3 0  9991,2 44930  53.1464  19.9182 0002458 186.3402 173.7578 15.54698515350519
STARLINK-1094,44941,53.1547,0.0001843,15.51435399,411.2827983857387,413.7858398339622,1 44941U 20001AD  26137.88193669  .00047574  00000+0  79607-3 0  9992,2 44941  53.1547 354.2078 0001843 223.3815 136.7050 15.51435399350889
STARLINK-1122,44949,53.1534,0.0001548,15.51193787,412.18813336872245,414.29074351406325,1 44949U 20001AM  26137.88874529  .00048621  00000+0  82034-3 0  9993,2 44949  53.1534 354.7295 0001548 212.7928 147.2986 15.51193787350874
STARLINK-1080,44961,53.046,0.0002303,15.58398966,390.73098776395,393.8494465401691,1 44961U 20001AZ  26137.53581260  .00028389  00000+0  37166-3 0  9991,2 44961  53.0460 316.2873 0002303 296.4339  63.6436 15.58398966351375
STARLINK-1090,44968,53.1512,9.34e-05,15.47714473,422.7785251389023,424.04905482647064,1 44968U 20001BG  26137.82679821  .00038490  00000+0  73650-3 0  9993,2 44968  53.1512 342.2221 0000934 189.9982 170.1008 15.47714473351041
STARLINK-1132,45044,53.1527,1.26e-05,15.52604628,409.03911132660323,409.2101503197009,1 45044U 20006A   26137.80541300  .00049943  00000+0  80086-3 0  9998,2 45044  53.1527 284.1153 0000126 354.8252   5.2757 15.52604628347632
STARLINK-1131,45047,53.1509,9.31e-05,15.49500749,417.552795243716,418.8182704993369,1 45047U 20006D   26137.77677512  .00051187  00000+0  91617-3 0  9997,2 45047  53.1509 316.5943 0000931 247.2143 112.8767 15.49500749347170
STARLINK-1134,45048,53.0274,0.0005665,15.53456784,402.79870358850803,410.4858585139391,1 45048U 20006E   26137.69468986  .00064172  00000+0  99342-3 0  9993,2 45048  53.0274 267.8851 0005665   8.4263 351.6840 15.53456784347836
STARLINK-1156,45054,53.1584,0.0001843,15.33102161,465.30193393327045,467.82489050521417,1 45054U 20006L   26137.56152840  .00021773  00000+0  68090-3 0  9991,2 45054  53.1584 320.6788 0001843 252.6468 107.4333 15.33102161347096
STARLINK-1166,45060,53.0476,0.0001552,15.5594651,398.35076232357915,400.45451062674056,1 45060U 20006S   26137.85499336  .00053776  00000+0  76259-3 0  9998,2 45060  53.0476 300.3777 0001552 273.7670  86.3163 15.55946510347398
STARLINK-1169,45061,53.1566,0.0003121,15.36172959,455.3053181206633,459.57208447341236,1 45061U 20006T   26137.76932613  .00025459  00000+0  72025-3 0  9993,2 45061  53.1566 318.7686 0003121 215.1356 144.9442 15.36172959347148
STARLINK-1171,45062,53.0416,0.0001689,15.71507018,353.4521161775592,355.7264311127965,1 45062U 20006U   26137.37238710  .00047698  00000+0  36768-3 0  9991,2 45062  53.0416 271.0192 0001689 227.9114 132.1760 15.71507018347762
STARLINK-1133,45064,53.157,0.0002007,15.33216707,464.84883515686215,467.5961610594022,1 45064U 20006W   26137.72806872  .00028856  00000+0  89460-3 0  9994,2 45064  53.1570 296.6816 0002007 284.6781  75.3998 15.33216707347454
STARLINK-1167,45071,53.1581,0.0002185,15.35343171,458.40726101669134,461.39548378542986,1 45071U 20006AD  26137.43679469  .00019393  00000+0  56642-3 0  9992,2 45071  53.1581 297.4557 0002185 209.5602 150.5278 15.35343171347411
STARLINK-1168,45072,53.1582,0.0001922,15.33256496,464.78862408181885,467.41955035574665,1 45072U 20006AE  26137.83983782  .00024962  00000+0  77487-3 0  9991,2 45072  53.1582 296.3748 0001922 287.4530  72.6262 15.33256496347469
STARLINK-1172,45074,53.1547,0.0002205,15.36409335,455.23049296752924,458.24467265854855,1 45074U 20006AG  26137.79879928  .00030350  00000+0  84961-3 0  9997,2 45074  53.1547 295.2551 0002205 222.5031 137.5802 15.36409335347470
STARLINK-1153,45080,53.1593,0.0003135,15.35451721,457.43546417825473,461.7227121655387,1 45080U 20006AN  26137.81108823  .00028436  00000+0  82160-3 0  9997,2 45080  53.1593 295.6228 0003135 235.7858 124.2848 15.35451721347477
STARLINK-1151,45081,53.05,0.0002272,15.74663226,344.06205103908815,347.11731244327166,1 45081U 20006AP  26137.76685615  .00051376  00000+0  34574-3 0  9996,2 45081  53.0500 258.2617 0002272 272.6495  87.4264 15.74663226347975
STARLINK-1185,45087,53.1593,0.0002522,15.43588745,433.80951835778797,437.2463309457835,1 45087U 20006AV  26137.80630729  .00040462  00000+0  89064-3 0  9991,2 45087  53.1593 277.0075 0002522 300.4714  59.6044 15.43588745347732
STARLINK-1183,45088,53.1578,0.0001837,15.33148967,465.16675625618063,467.68144800510436,1 45088U 20006AW  26137.81671347  .00037194  00000+0  11510-2 0  9992,2 45088  53.1578 281.0675 0001837 305.8047  54.2784 15.33148967347675
STARLINK-1152,45096,53.0354,0.0002998,15.46343539,425.39289734413614,429.4735172404289,1 45096U 20006BE  26137.46767638  .00028392  00000+0  57248-3 0  9990,2 45096  53.0354 240.0124 0002998  10.9955 349.1116 15.46343539348201
STARLINK-1184,45098,53.0515,0.0002777,15.13344064,524.093141888714,527.9277053677979,1 45098U 20006BG  26137.81129049  .00013329  00000+0  75444-3 0  9991,2 45098  53.0515 292.4486 0002777 351.1534   8.9409 15.13344064347495
STARLINK-1193,45100,53.0493,0.000346,15.65813579,368.5647645037852,373.2350980602323,1 45100U 20006BJ  26137.72215603  .00043886  00000+0  42763-3 0  9996,2 45100  53.0493 253.5472 0003460 248.6989 111.3657 15.65813579348035
STARLINK-1143,45179,53.0381,0.0001321,15.81579568,325.08758154466614,326.858807458053,1 45179U 20012B   26137.91670139  .00118305  00000+0  57559-3 0  9997,2 45179  53.0381 346.6063 0001321 287.5483 350.0320 15.81579568  5935
STARLINK-1202,45183,53.1575,0.0003137,15.32871296,465.1032481969696,469.39804440625903,1 45183U 20012F   26137.10681162  .00018784  00000+0  59348-3 0  9999,2 45183  53.1575  81.1073 0003137  84.1333 276.0027 15.32871296345432
STARLINK-1216,45185,53.1569,0.0003352,15.331462,464.1380377959176,468.72663707973607,1 45185U 20012H   26137.15511283  .00019708  00000+0  61669-3 0  9998,2 45185  53.1569  80.7824 0003352  88.5177 271.6209 15.33146200345387
STARLINK-1225,45187,53.1572,0.0002853,15.33125362,464.54158418124916,468.4471308338443,1 45187U 20012K   26137.80504242  .00027540  00000+0  85690-3 0  9992,2 45187  53.1572  78.2029 0002853  89.8302 270.3027 15.33125362345527
STARLINK-1230,45189,53.1568,0.0003226,15.33023085,464.5906082884476,469.0069608566537,1 45189U 20012M   26137.09792426  .00022400  00000+0  70181-3 0  9997,2 45189  53.1568  81.5637 0003226  85.7657 274.3713 15.33023085342644
